BIRKELAND               
1 55015U 23001G   26155.08570608  .00010763  00000+0  27297-3 0  9991
2 55015  97.3347 223.0240 0007885 142.8936 217.2856 15.39839422190338
LYNK TOWER 4            
1 55034U 23001AB  26155.06092478  .00008587  00000+0  27006-3 0  9993
2 55034  97.3200 214.1088 0009203 156.8387 203.3272 15.33167015189814
SKYKRAFT-1              
1 55041U 23001AJ  26155.15123447  .00049332  00000+0  49220-3 0  9997
2 55041  97.3184 231.8885 0004958 122.4219 237.7521 15.65495341191013
CONTINUUM-1             
1 55045U 23001AN  26155.16099274  .00012419  00000+0  43012-3 0  9991
2 55045  97.3341 218.4188 0011051 107.2159 253.0292 15.29933297190264
LYNK TOWER 3            
1 55046U 23001AP  26154.14671248  .00011662  00000+0  33454-3 0  9994
2 55046  97.3202 214.4667 0008611 159.1780 200.9816 15.35993765189751
NUSAT-33 (ALBANIA-2)    
1 55047U 23001AQ  26155.17545619  .00010975  00000+0  40932-3 0  9996
2 55047  97.3073 216.3440 0008302  94.6110 265.6078 15.27559375190324
NUSAT-35 (WILLIAMINA)   
1 55048U 23001AR  26155.19147692  .00015172  00000+0  45091-3 0  9993
2 55048  97.1857 208.2587 0012579 142.3771 217.8355 15.34771984190417
ICEYE-X21               
1 55049U 23001AS  26155.06538385  .00291946  38133-4  54340-3 0  9998
2 55049  97.3150 240.3264 0002923 183.8398 176.2859 16.01061251191515
ION SCV-008             
1 55051U 23001AU  26155.21030162  .00007588  00000+0  27610-3 0  9992
2 55051  97.5704 251.3134 0016103  61.8958 298.3907 15.28413191189356
EOSSAT-1                
1 55053U 23001AW  26155.09702905  .00006327  00000+0  19789-3 0  9999
2 55053  97.3240 215.8158 0010300 154.8921 205.2824 15.33441744189916
SKYKRAFT-1A             
1 55054U 23001AX  26155.05155736  .00006330  00000+0  22620-3 0  9992
2 55054  97.3223 212.6253 0009927 168.9599 191.1861 15.29132702189717
VIGORIDE-5              
1 55056U 23001AZ  26154.15134767  .00041591  00000+0  51859-3 0  9999
2 55056  97.3228 225.1902 0005674 176.4232 183.7066 15.59772961190476
ION SCV-007             
1 55060U 23001BD  26155.06012498  .00000595  00000+0  90406-4 0  9992
2 55060  97.9010 218.3348 0012841  24.6962 335.4861 14.77541381184316
SKYKRAFT-1C             
1 55061U 23001BE  26155.08075391  .00003852  00000+0  15747-3 0  9999
2 55061  97.3193 209.0270 0010398 183.6847 176.4316 15.24907078189480
YAM-5                   
1 55076U 23001BV  26154.10884235  .00011697  00000+0  31208-3 0  9998
2 55076  97.3198 217.1897 0009730 151.2553 208.9230 15.38241654189942
HUYGENS                 
1 55093U 23001CN  26155.08579253  .00010393  00000+0  26346-3 0  9995
2 55093  97.3252 222.2709 0011075 126.1381 234.0891 15.39829684190352
KUWAITSAT-1             
1 55103U 23001CY  26154.18928183  .00025644  00000+0  47390-3 0  9994
2 55103  97.3250 224.7763 0009378 123.6971 236.5175 15.49005016190425
SHARJAHSAT-1            
1 55104U 23001CZ  26154.99738080  .00020713  00000+0  38983-3 0  9999
2 55104  97.3175 223.5851 0006895 141.6624 218.5118 15.48546112190459
AAC-AIS-SAT1            
1 55107U 23001DC  26155.16175262  .00005947  00000+0  59190-3 0  9994
2 55107  97.9193 231.8657 0008218 329.6555  30.4186 14.91995583176341
ASTROCAST-0402          
1 55109U 23001DE  26155.14582079  .00013284  00000+0  48418-3 0  9996
2 55109  97.5575 248.1521 0003243 289.4908  70.5981 15.28304749142544
ASTROCAST-0401          
1 55110U 23001DF  26154.95040847  .00016163  00000+0  59806-3 0  9990
2 55110  97.5556 247.8021 0006815 247.1220 112.9299 15.27745007189181
ASTROCAST-0403          
1 55111U 23001DG  26155.06328123  .00027608  00000+0  92153-3 0  9998
2 55111  97.5612 248.9793 0004978  32.5296 327.6250 15.31008837142550
ASTROCAST-0404          
1 55112U 23001DH  26154.25891718  .00023570  00000+0  86157-3 0  9995
2 55112  97.5662 248.1467 0007495  53.4454 306.7474 15.28061428142402
SHIJIAN-23 (SJ-23)      
1 55131U 23002A   26154.66930644 -.00000165  00000+0  00000+0 0  9999
2 55131   3.6827  78.4813 0003973 278.4105 293.1700  1.00091075 12371
2023-003C               
1 55135U 23003C   26155.15640344  .00024276  00000+0  36235-3 0  9995
2 55135  97.1526 231.7059 0003963 154.9026 205.2422 15.55042175190255
2023-003E               
1 55137U 23003E   26155.18113692  .00025664  00000+0  38912-3 0  9997
2 55137  97.1436 230.6321 0004882 146.8784 213.2777 15.54596639190248
ONEWEB-0532             
1 55140U 23004A   26155.04825257  .00000046  00000+0  84964-4 0  9990
2 55140  87.9144   8.4784 0002132  91.0468 269.0908 13.17647815165859
ONEWEB-0533             
1 55141U 23004B   26155.03966476 -.00000420  00000+0 -12022-2 0  9991
2 55141  87.8946 353.2861 0001952  77.1785 282.9562 13.12442657166338
ONEWEB-0541             
1 55142U 23004C   26155.05925715 -.00000266  00000+0 -78674-3 0  9999
2 55142  87.8914  23.6701 0001794  94.2721 265.8612 13.11419684164224
ONEWEB-0543             
1 55143U 23004D   26155.03723010 -.00000033  00000+0 -11768-3 0  9995
2 55143  87.9152 338.0882 0001655  83.8945 276.2376 13.18688841167968
