OBJECT_NAME,OBJECT_ID,EPOCH,MEAN_MOTION,ECCENTRICITY,INCLINATION,RA_OF_ASC_NODE,ARG_OF_PERICENTER,MEAN_ANOMALY,EPHEMERIS_TYPE,CLASSIFICATION_TYPE,NORAD_CAT_ID,ELEMENT_SET_NO,REV_AT_EPOCH,BSTAR,MEAN_MOTION_DOT,MEAN_MOTION_DDOT
BIRKELAND,2023-001G,2026-06-04T02:03:25.005312,15.39839422,.0007885,97.3347,223.0240,142.8936,217.2856,0,U,55015,999,19033,.27297E-3,.10763E-3,0
LYNK TOWER 4,2023-001AB,2026-06-04T01:27:43.900992,15.33167015,.0009203,97.3200,214.1088,156.8387,203.3272,0,U,55034,999,18981,.27006E-3,.8587E-4,0
SKYKRAFT-1,2023-001AJ,2026-06-04T03:37:46.658208,15.65495341,.0004958,97.3184,231.8885,122.4219,237.7521,0,U,55041,999,19101,.4922E-3,.49332E-3,0
CONTINUUM-1,2023-001AN,2026-06-04T03:51:49.772736,15.29933297,.0011051,97.3341,218.4188,107.2159,253.0292,0,U,55045,999,19026,.43012E-3,.12419E-3,0
LYNK TOWER 3,2023-001AP,2026-06-03T03:31:15.958272,15.35993765,.00086112,97.3202,214.4667,159.1780,200.9816,0,U,55046,999,18975,.33453936E-3,.11662E-3,0
NUSAT-33 (ALBANIA-2),2023-001AQ,2026-06-04T04:12:39.414816,15.27559375,.0008302,97.3073,216.3440,94.6110,265.6078,0,U,55047,999,19032,.40932E-3,.10975E-3,0
NUSAT-35 (WILLIAMINA),2023-001AR,2026-06-04T04:35:43.605888,15.34771984,.0012579,97.1857,208.2587,142.3771,217.8355,0,U,55048,999,19041,.45091E-3,.15172E-3,0
ICEYE-X21,2023-001AS,2026-06-04T01:34:09.164640,16.01061251,.0002923,97.3150,240.3264,183.8398,176.2859,0,U,55049,999,19151,.5434E-3,.291946E-2,.38133E-4
ION SCV-008,2023-001AU,2026-06-04T05:02:50.059968,15.28413191,.0016103,97.5704,251.3134,61.8958,298.3907,0,U,55051,999,18935,.2761E-3,.7588E-4,0
EOSSAT-1,2023-001AW,2026-06-04T02:19:43.309920,15.33441744,.00103,97.3240,215.8158,154.8921,205.2824,0,U,55053,999,18991,.19789E-3,.6327E-4,0
SKYKRAFT-1A,2023-001AX,2026-06-04T01:14:14.555904,15.29132702,.0009927,97.3223,212.6253,168.9599,191.1861,0,U,55054,999,18971,.2262E-3,.633E-4,0
VIGORIDE-5,2023-001AZ,2026-06-03T03:37:56.438688,15.59772961,.00056745,97.3228,225.1902,176.4232,183.7066,0,U,55056,999,19047,.51859107E-3,.41591E-3,0
ION SCV-007,2023-001BD,2026-06-04T01:26:34.798272,14.77541381,.0012841,97.9010,218.3348,24.6962,335.4861,0,U,55060,999,18431,.90406E-4,.595E-5,0
SKYKRAFT-1C,2023-001BE,2026-06-04T01:56:17.137824,15.24907078,.0010398,97.3193,209.0270,183.6847,176.4316,0,U,55061,999,18948,.15747E-3,.3852E-4,0
YAM-5,2023-001BV,2026-06-03T02:36:43.979040,15.38241654,.00097309,97.3198,217.1897,151.2553,208.9230,0,U,55076,999,18994,.31207928E-3,.11697E-3,0
HUYGENS,2023-001CN,2026-06-04T02:03:32.474592,15.39829684,.0011075,97.3252,222.2709,126.1381,234.0891,0,U,55093,999,19035,.26346E-3,.10393E-3,0
KUWAITSAT-1,2023-001CY,2026-06-03T04:32:33.950112,15.49005016,.0009378,97.3250,224.7763,123.6971,236.5175,0,U,55103,999,19042,.4739E-3,.25644E-3,0
SHARJAHSAT-1,2023-001CZ,2026-06-03T23:56:13.701120,15.48546112,.0006895,97.3175,223.5851,141.6624,218.5118,0,U,55104,999,19045,.38983E-3,.20713E-3,0
AAC-AIS-SAT1,2023-001DC,2026-06-04T03:52:55.426368,14.91995583,.0008218,97.9193,231.8657,329.6555,30.4186,0,U,55107,999,17634,.5919E-3,.5947E-4,0
ASTROCAST-0402,2023-001DE,2026-06-04T03:29:58.916256,15.28304749,.0003243,97.5575,248.1521,289.4908,70.5981,0,U,55109,999,14254,.48418E-3,.13284E-3,0
ASTROCAST-0401,2023-001DF,2026-06-03T22:48:35.291808,15.27745007,.0006815,97.5556,247.8021,247.1220,112.9299,0,U,55110,999,18918,.59806E-3,.16163E-3,0
ASTROCAST-0403,2023-001DG,2026-06-04T01:31:07.498272,15.31008837,.0004978,97.5612,248.9793,32.5296,327.6250,0,U,55111,999,14255,.92153E-3,.27608E-3,0
ASTROCAST-0404,2023-001DH,2026-06-03T06:12:50.444352,15.28061428,.00074958,97.5662,248.1467,53.4454,306.7474,0,U,55112,999,14240,.86156896E-3,.2357E-3,0
SHIJIAN-23 (SJ-23),2023-002A,2026-06-03T16:03:48.076416,1.00091075,.0003973,3.6827,78.4813,278.4105,293.1700,0,U,55131,999,1237,0,-.165E-5,0
2023-003C,2023-003C,2026-06-04T03:45:13.257216,15.55042175,.0003963,97.1526,231.7059,154.9026,205.2422,0,U,55135,999,19025,.36235E-3,.24276E-3,0
2023-003E,2023-003E,2026-06-04T04:20:50.229888,15.54596639,.0004882,97.1436,230.6321,146.8784,213.2777,0,U,55137,999,19024,.38912E-3,.25664E-3,0
ONEWEB-0532,2023-004A,2026-06-04T01:09:29.022048,13.17647815,.0002132,87.9144,8.4784,91.0468,269.0908,0,U,55140,999,16585,.84964E-4,.46E-6,0
ONEWEB-0533,2023-004B,2026-06-04T00:57:07.035264,13.12442657,.0001952,87.8946,353.2861,77.1785,282.9562,0,U,55141,999,16633,-.12022E-2,-.42E-5,0
ONEWEB-0541,2023-004C,2026-06-04T01:25:19.817760,13.11419684,.0001794,87.8914,23.6701,94.2721,265.8612,0,U,55142,999,16422,-.78674E-3,-.266E-5,0
ONEWEB-0543,2023-004D,2026-06-04T00:53:36.680640,13.18688841,.0001655,87.9152,338.0882,83.8945,276.2376,0,U,55143,999,16796,-.11768E-3,-.33E-6,0
